{
  "norad_id": 67401,
  "name": "CONNECTA IOT-14",
  "history": [
    {
      "epoch": "2026-03-28T22:22:59.735712",
      "apogee_km": 517.3871934904319,
      "perigee_km": 506.3204902002608,
      "latitude_deg": 7.226917591296418,
      "longitude_deg": -70.36696031992324,
      "semi_major_axis_km": 6889.990841845346,
      "eccentricity": 0.0008031,
      "inclination_deg": 97.4517,
      "raan_deg": 88.1514,
      "arg_perigee_deg": 258.1145,
      "mean_anomaly_deg": 101.9188,
      "mean_motion_rev_day": 15.18010568
    }
  ]
}